NORAD_CAT_ID,OBJECT_NAME,OBJECT_TYPE,EPOCH,MEAN_MOTION,ECCENTRICITY,INCLINATION,RA_OF_ASC_NODE,ARG_OF_PERICENTER,MEAN_ANOMALY,BSTAR,MEAN_MOTION_DOT,MEAN_MOTION_DDOT,TLE_LINE0,TLE_LINE1,TLE_LINE2,SEMIMAJOR_AXIS,PERIOD,APOGEE,PERIGEE,DECAYED
49409.0,STARLINK-3075,PAYLOAD,2022-04-03 06:00:00,15.08775688,0.0001986,53.2199,197.552,38.8678,351.5601,0.0028788,0.00045745,0.0,0 STARLINK-3075,1 49409U 21104B   22093.25001157  .00045745  00000-0  28788-2 0  9991,2 49409  53.2199 197.5520 0001986  38.8678 351.5601 15.08775688 22875,6918.0769999999975,95.442,541.316,538.568,0.0
49409.0,STARLINK-3075,PAYLOAD,2022-04-03 22:00:00,15.08824181,0.0002121,53.2194,194.5609,35.2196,18.2801,-0.0010419,-0.00016825,0.0,0 STARLINK-3075,1 49409U 21104B   22093.91667824 -.00016825  00000-0 -10419-2 0  9994,2 49409  53.2194 194.5609 0002121  35.2196  18.2801 15.08824181 22976,6917.929,95.439,541.261,538.326,0.0
49409.0,STARLINK-3075,PAYLOAD,2022-04-04 14:00:01,15.08836426,0.0002175,53.2192,191.5694,36.6066,40.0465,0.00071111,0.00011046,0.0,0 STARLINK-3075,1 49409U 21104B   22094.58334491  .00011046  00000-0  71111-3 0  9994,2 49409  53.2192 191.5694 0002175  36.6066  40.0465 15.08836426 23071,6917.891,95.438,541.261,538.252,0.0
49409.0,STARLINK-3075,PAYLOAD,2022-04-04 22:00:00,15.08878271,0.0002107,53.2187,190.0723,35.8911,52.3685,-0.00082254,-0.00013369,0.0,0 STARLINK-3075,1 49409U 21104B   22094.91667824 -.00013369  00000-0 -82254-3 0  9992,2 49409  53.2187 190.0723 0002107  35.8911  52.3685 15.08878271  3608,6917.763000000001,95.435,541.086,538.1709999999998,0.0
49409.0,STARLINK-3075,PAYLOAD,2022-04-05 14:00:01,15.08830071,0.0002184,53.2184,187.0807,37.6063,73.9421,0.00089945,0.00014052,0.0,0 STARLINK-3075,1 49409U 21104B   22095.58335648  .00014052  00000-0  89945-3 0  9994,2 49409  53.2184 187.0807 0002184  37.6063  73.9421 15.08830071  3576,6917.911,95.438,541.2869999999998,538.265,0.0
49409.0,STARLINK-3075,PAYLOAD,2022-04-05 16:00:00,15.08812061,0.0002215,53.2184,186.7068,36.0995,168.2886,0.0037687,0.00060158,0.0,0 STARLINK-3075,1 49409U 21104B   22095.66667824  .00060158  00000-0  37687-2 0  9990,2 49409  53.2184 186.7068 0002215  36.0995 168.2886 15.08812061 23230,6917.965999999999,95.439,541.363,538.298,0.0
49409.0,STARLINK-3075,PAYLOAD,2022-04-05 22:00:00,15.08859302,0.0002125,53.218,185.5835,37.4466,85.6246,-0.00075145,-0.00012234,0.0,0 STARLINK-3075,1 49409U 21104B   22095.91667824 -.00012234  00000-0 -75145-3 0  9994,2 49409  53.2180 185.5835 0002125  37.4466  85.6246 15.08859302  3625,6917.821,95.436,541.156,538.216,0.0
49409.0,STARLINK-3075,PAYLOAD,2022-04-06 06:00:02,15.08869295,0.0002018,53.2181,184.0862,41.1119,93.6253,-0.0011253,-0.00018167,0.0,0 STARLINK-3075,1 49409U 21104B   22096.25002315 -.00018167  00000-0 -11253-2 0  9990,2 49409  53.2181 184.0862 0002018  41.1119  93.6253 15.08869295 23326,6917.791,95.436,541.052,538.26,0.0
49409.0,STARLINK-3075,PAYLOAD,2022-04-06 14:00:01,15.08846318,0.0002167,53.218,182.5919,34.3798,111.917,-0.0012528,-0.00020175,0.0,0 STARLINK-3075,1 49409U 21104B   22096.58334491 -.00020175  00000-0 -12528-2 0  9997,2 49409  53.2180 182.5919 0002167  34.3798 111.9170 15.08846318  3605,6917.861,95.437,541.225,538.227,0.0
49409.0,STARLINK-3075,PAYLOAD,2022-04-06 22:00:00,15.08841816,0.0002034,53.2178,181.0943,33.3693,124.5225,-0.00093225,-0.00015095,0.0,0 STARLINK-3075,1 49409U 21104B   22096.91667824 -.00015095  00000-0 -93225-3 0  9992,2 49409  53.2178 181.0943 0002034  33.3693 124.5225 15.08841816  3563,6917.875,95.437,541.1469999999998,538.3330000000002,0.0
49409.0,STARLINK-3075,PAYLOAD,2022-04-07 14:00:01,15.088138199999998,0.0002189,53.218,178.1029,31.268,149.8233,0.0020052,0.00031747,0.0,0 STARLINK-3075,1 49409U 21104B   22097.58334491  .00031747  00000-0  20052-2 0  9994,2 49409  53.2180 178.1029 0002189  31.2680 149.8233 15.08813820  3611,6917.96,95.439,541.34,538.311,0.0
49409.0,STARLINK-3075,PAYLOAD,2022-04-07 20:00:01,15.08866143,0.0002184,53.2177,176.9799,31.0303,68.7417,-0.0030393,-0.0004837,0.0,0 STARLINK-3075,1 49409U 21104B   22097.83334491 -.00048370  00000-0 -30393-2 0  9993,2 49409  53.2177 176.9799 0002184  31.0303  68.7417 15.08866143 23567,6917.8,95.436,541.1759999999998,538.155,0.0
49409.0,STARLINK-3075,PAYLOAD,2022-04-07 22:00:00,15.08865513,0.0002113,53.2179,176.6052,32.631,160.0432,-0.0036248,-0.00057558,0.0,0 STARLINK-3075,1 49409U 21104B   22097.91667824 -.00057558  00000-0 -36248-2 0  9994,2 49409  53.2179 176.6052 0002113  32.6310 160.0432 15.08865513  3588,6917.802,95.436,541.129,538.206,0.0
49409.0,STARLINK-3075,PAYLOAD,2022-04-08 06:00:00,15.08840497,0.0002126,53.2182,175.1085,37.7259,166.5522,0.0013472,0.00021218,0.0,0 STARLINK-3075,1 49409U 21104B   22098.25001157  .00021218  00000-0  13472-2 0  9999,2 49409  53.2182 175.1085 0002126  37.7259 166.5522 15.08840497 23626,6917.879,95.438,541.215,538.273,0.0
49409.0,STARLINK-3075,PAYLOAD,2022-04-08 14:00:03,15.08843881,0.000233,53.2184,173.6139,32.9818,183.0215,0.0003811,5.783e-05,0.0,0 STARLINK-3075,1 49409U 21104B   22098.58336806  .00005783  00000-0  38110-3 0  9993,2 49409  53.2184 173.6139 0002330  32.9818 183.0215 15.08843881  3605,6917.869000000002,95.437,541.345,538.122,0.0
49409.0,STARLINK-3075,PAYLOAD,2022-04-08 22:00:00,15.08849239,0.0002143,53.2185,172.1162,30.8265,196.6562,-0.0033943,-0.0005392,0.0,0 STARLINK-3075,1 49409U 21104B   22098.91667824 -.00053920  00000-0 -33943-2 0  9993,2 49409  53.2185 172.1162 0002143  30.8265 196.6562 15.08849239 23724,6917.852,95.437,541.2,538.235,0.0
49409.0,STARLINK-3075,PAYLOAD,2022-04-09 14:00:01,15.088068300000002,0.0002334,53.2189,169.1252,30.3613,220.2689,0.002656,0.00042198,0.0,0 STARLINK-3075,1 49409U 21104B   22099.58334491  .00042198  00000-0  26560-2 0  9998,2 49409  53.2189 169.1252 0002334  30.3613 220.2689 15.08806830 23823,6917.982,95.44,541.461,538.232,0.0
49409.0,STARLINK-3075,PAYLOAD,2022-04-09 22:00:00,15.08845676,0.0002214,53.219,167.6274,32.5357,229.677,-0.0025017,-0.0003989,0.0,0 STARLINK-3075,1 49409U 21104B   22099.91667824 -.00039890  00000-0 -25017-2 0  9997,2 49409  53.2190 167.6274 0002214  32.5357 229.6770 15.08845676  3607,6917.863,95.437,541.26,538.196,0.0
49409.0,STARLINK-3075,PAYLOAD,2022-04-10 06:00:02,15.0883689,0.0002199,53.2193,166.1309,36.7365,237.1191,0.00041195,6.274e-05,0.0,0 STARLINK-3075,1 49409U 21104B   22100.25002315  .00006274  00000-0  41195-3 0  9999,2 49409  53.2193 166.1309 0002199  36.7365 237.1191 15.08836890 23926,6917.89,95.438,541.276,538.234,0.0
49409.0,STARLINK-3075,PAYLOAD,2022-04-10 14:00:01,15.08818634,0.0002412,53.2193,164.6364,32.8244,252.5601,0.0024849,0.00039459,0.0,0 STARLINK-3075,1 49409U 21104B   22100.58334491  .00039459  00000-0  24849-2 0  9995,2 49409  53.2193 164.6364 0002412  32.8244 252.5601 15.08818634  3595,6917.946,95.439,541.479,538.1419999999998,0.0
49409.0,STARLINK-3075,PAYLOAD,2022-04-10 22:00:00,15.08849509,0.0002205,53.2192,163.1386,33.0715,263.9194,-0.0012640999999999,-0.00020356,0.0,0 STARLINK-3075,1 49409U 21104B   22100.91667824 -.00020356  00000-0 -12641-2 0  9996,2 49409  53.2192 163.1386 0002205  33.0715 263.9194 15.08849509  3608,6917.851,95.437,541.242,538.191,0.0
49409.0,STARLINK-3075,PAYLOAD,2022-04-11 14:00:01,15.0883695,0.0002306,53.2193,160.1477,29.7434,290.4289,-0.00048438,-7.989e-05,0.0,0 STARLINK-3075,1 49409U 21104B   22101.58334491 -.00007989  00000-0 -48438-3 0  9992,2 49409  53.2193 160.1477 0002306  29.7434 290.4289 15.08836950 24125,6917.89,95.438,541.35,538.159,0.0
49409.0,STARLINK-3075,PAYLOAD,2022-04-11 22:00:00,15.08808494,0.000206,53.2191,158.6498,29.0924,302.672,-0.0011762,-0.00018943,0.0,0 STARLINK-3075,1 49409U 21104B   22101.91667824 -.00018943  00000-0 -11762-2 0  9999,2 49409  53.2191 158.6498 0002060  29.0924 302.6720 15.08808494  3587,6917.977,95.44,541.2669999999998,538.4169999999998,0.0
49409.0,STARLINK-3075,PAYLOAD,2022-04-12 06:00:02,15.08816144,0.0002037,53.2193,157.154,29.964,313.4042,-0.0009265,-0.00014994,0.0,0 STARLINK-3075,1 49409U 21104B   22102.25002315 -.00014994  00000-0 -92650-3 0  9993,2 49409  53.2193 157.1540 0002037  29.9640 313.4042 15.08816144 24221,6917.953,95.439,541.227,538.409,0.0
49409.0,STARLINK-3075,PAYLOAD,2022-04-12 14:00:01,15.0878479,0.0002254,53.2189,155.6593,27.2593,327.6084,0.002976,0.00047322,0.0,0 STARLINK-3075,1 49409U 21104B   22102.58334491  .00047322  00000-0  29760-2 0  9992,2 49409  53.2189 155.6593 0002254  27.2593 327.6084 15.08784790  3610,6918.049,95.441,541.4730000000002,538.355,0.0
49409.0,STARLINK-3075,PAYLOAD,2022-04-12 22:00:00,15.0882907,0.000213,53.2187,154.1614,32.8919,333.556,0.00099151,0.00015522,0.0,0 STARLINK-3075,1 49409U 21104B   22102.91667824  .00015522  00000-0  99151-3 0  9997,2 49409  53.2187 154.1614 0002130  32.8919 333.5560 15.08829070 24320,6917.9140000000025,95.438,541.252,538.305,0.0
49409.0,STARLINK-3075,PAYLOAD,2022-04-13 14:00:03,15.08831738,0.0002367,53.2183,151.1705,31.3445,358.4319,0.0030747,0.00048976,0.0,0 STARLINK-3075,1 49409U 21104B   22103.58336806  .00048976  00000-0  30747-2 0  9998,2 49409  53.2183 151.1705 0002367  31.3445 358.4319 15.08831738  3570,6917.906,95.438,541.408,538.133,0.0
49409.0,STARLINK-3075,PAYLOAD,2022-04-13 22:00:00,15.08847843,0.0002181,53.2182,149.6725,33.821,7.4418,0.0014842,0.00023417,0.0,0 STARLINK-3075,1 49409U 21104B   22103.91667824  .00023417  00000-0  14842-2 0  9993,2 49409  53.2182 149.6725 0002181  33.8210   7.4418 15.08847843  3625,6917.856,95.437,541.23,538.2130000000002,0.0
49409.0,STARLINK-3075,PAYLOAD,2022-04-14 06:00:00,15.08881322,0.0002225,53.2182,148.1768,34.0133,18.8552,-0.0043283,-0.00068598,0.0,0 STARLINK-3075,1 49409U 21104B   22104.25001157 -.00068598  00000-0 -43283-2 0  9994,2 49409  53.2182 148.1768 0002225  34.0133  18.8552 15.08881322 24530,6917.754,95.435,541.158,538.08,0.0
